{"version": 0.6, "generator": "Overpass API 0.7.62.1 084b4234", "osm3s": {"timestamp_osm_base": "2024-10-01T18:59:59Z", "copyright": "The data included in this document is from www.openstreetmap.org. The data is made available under ODbL."}, "elements": [{"type": "node", "id": 1825289628, "lat": 28.7146087, "lon": 77.1118501}, {"type": "node", "id": 3043573339, "lat": 28.7161511, "lon": 77.1132272}, {"type": "node", "id": 3043573340, "lat": 28.7139117, "lon": 77.1112477}, {"type": "node", "id": 3043573341, "lat": 28.7118651, "lon": 77.1141927}, {"type": "node", "id": 3043573342, "lat": 28.7141281, "lon": 77.1162044}, {"type": "node", "id": 3043574641, "lat": 28.717586, "lon": 77.1111189}, {"type": "node", "id": 3043574642, "lat": 28.7159253, "lon": 77.1096384}, {"type": "node", "id": 3043574643, "lat": 28.7152055, "lon": 77.1106254}, {"type": "node", "id": 3043574644, "lat": 28.7168992, "lon": 77.1121757}, {"type": "way", "id": 300260591, "nodes": [3043573339, 1825289628, 3043573340, 3043573341, 3043573342, 3043573339], "tags": {"addr:city": "Sector - 5, Rohini, Delhi", "addr:district": "North West", "addr:full": "Sector 6, Rohini, Near Rohini West Metro Station", "addr:postcode": "110085", "addr:state": "Delhi", "amenity": "hospital", "contact:phone": "1127055585", "emergency": "yes", "healthcare": "hospital", "name": "Doctor Baba Saheb Ambedkar Hospital", "name:etymology:wikidata": "Q231690", "source": "OpenGovernmentData"}}, {"type": "way", "id": 300260758, "nodes": [3043574641, 3043574642, 3043574643, 3043574644, 3043574641], "tags": {"addr:city": "Sector - 5, Rohini, Delhi", "addr:postcode": "110085", "amenity": "hospital", "name": "Rajiv Gandhi Cancer Institute and Research Center", "name:etymology:wikidata": "Q4593", "short_name": "RGCIRC"}}]}