{"version": 0.6, "generator": "Overpass API 0.7.62.1 084b4234", "osm3s": {"timestamp_osm_base": "2024-09-29T04:13:37Z", "copyright": "The data included in this document is from www.openstreetmap.org. The data is made available under ODbL."}, "elements": [{"type": "node", "id": 4445965958, "lat": 12.9239305, "lon": 77.6132696, "tags": {"addr:city": "Bangalore", "addr:housenumber": "2324, Om Comple", "addr:postcode": "560068", "addr:street": "Maruthi Nagar Main Road", "amenity": "hospital", "emergency": "yes", "name": "Life Care Hospital", "phone": "080 2684 6677"}}, {"type": "node", "id": 4446924573, "lat": 12.9242825, "lon": 77.6170883, "tags": {"addr:city": "Bangalore", "addr:housenumber": "#1478/1", "addr:postcode": "560029", "addr:street": "Hosur Road, Madiwala, Venkateshwara Layout, Sadduguntepalya", "amenity": "hospital", "emergency": "yes", "healthcare": "hospital", "name": "Surya Diagnostics and Health Services", "phone": "080 2552 6667", "source": "http://www.bangalorean.co.in/"}}, {"type": "node", "id": 6408950782, "lat": 12.9219732, "lon": 77.6156311, "tags": {"addr:place": "BTM Layout", "amenity": "school", "isced:level": "3", "name": "Our Lady Fathima HPS, B T M Layout W No 65", "name:kn": "\u0c85\u0cb5\u0cb0\u0ccd \u0cb2\u0cc7\u0ca1\u0cbf \u0cab\u0cbe\u0ca4\u0cc0\u0cae \u0cb9\u0cbf\u0cb0\u0cbf\u0caf \u0caa\u0ccd\u0cb0\u0cbe\u0ca5\u0cae\u0cbf\u0c95 \u0cb6\u0cbe\u0cb2\u0cc6, \u0cac\u0cbf.\u0c9f\u0cbf.\u0c8e\u0c82 \u0cb2\u0cc7\u0c94\u0c9f\u0ccd", "operator": "Private Un-Aided", "school": "Higher Secondary"}}, {"type": "node", "id": 6536937302, "lat": 12.9246386, "lon": 77.6149532, "tags": {"addr:place": "Madivala", "amenity": "school", "isced:level": "2", "name": "Padmavathi HPS Madivala", "name:kn": "\u0caa\u0ca6\u0ccd\u0cae\u0cbe\u0cb5\u0ca4\u0cbf \u0cb9\u0cbf\u0cb0\u0cbf\u0caf \u0caa\u0ccd\u0cb0\u0cbe\u0ca5\u0cae\u0cbf\u0c95 \u0cb6\u0cbe\u0cb2\u0cc6 \u0cae\u0ca1\u0cbf\u0cb5\u0cbe\u0cb3", "operator": "Private Un-Aided", "school": "primary"}}, {"type": "node", "id": 6536947501, "lat": 12.9203588, "lon": 77.6173047, "tags": {"addr:place": "Madivala", "amenity": "school", "isced:level": "3", "name": "New Christ Convent HPS Madival", "name:kn": "\u0ca8\u0ccd\u0caf\u0cc2 \u0c95\u0ccd\u0cb0\u0cc8\u0cb8\u0ccd\u0c9f\u0ccd \u0c95\u0cbe\u0ca8\u0ccd\u0cb5\u0cc6\u0c82\u0c9f\u0ccd \u0cb9\u0cbf\u0cb0\u0cbf\u0caf \u0caa\u0ccd\u0cb0\u0cbe\u0ca5\u0cae\u0cbf\u0c95 \u0cb6\u0cbe\u0cb2\u0cc6 \u0cae\u0ca1\u0cbf\u0cb5\u0cbe\u0cb3,", "operator": "Private Un-Aided", "school": "Higher Secondary"}}, {"type": "node", "id": 6702501249, "lat": 12.9253424, "lon": 77.6124709, "tags": {"addr:place": "Madiwala", "amenity": "school", "isced:level": "3", "name": "Venkateshwara HS, Madiwala W No 66", "name:kn": "\u0cb5\u0cc6\u0c82\u0c95\u0c9f\u0cc7\u0cb6\u0ccd\u0cb5\u0cb0 \u0caa\u0ccd\u0cb0\u0ccc\u0ca2\u0cb6\u0cbe\u0cb2\u0cc6,\u0cae\u0ca1\u0cbf\u0cb5\u0cbe\u0cb3", "operator": "Private Un-Aided", "school": "Higher Secondary"}}, {"type": "node", "id": 6702757188, "lat": 12.9245862, "lon": 77.6150716, "tags": {"addr:place": "Madiwala", "amenity": "school", "isced:level": "3", "name": "RS Madivala School", "name:kn": "\u0c86\u0cb0\u0ccd.\u0c8e\u0cb8\u0ccd. \u0cae\u0ca1\u0cbf\u0cb5\u0cbe\u0cb3", "operator": "Private -Aided", "school": "Higher Secondary"}}, {"type": "node", "id": 6938790393, "lat": 12.924624, "lon": 77.6170966, "tags": {"addr:district": "Bengaluru Rural", "addr:full": "No. 38/2, 2nd Main Road, Madiwala New Extension", "addr:postcode": "560068", "addr:state": "Karnataka", "amenity": "hospital", "name": "Varalakshmi Hospital", "name:kn": "\u0cb5\u0cb0\u0cb2\u0c95\u0ccd\u0cb7\u0ccd\u0cae\u0cbf \u0c86\u0cb8\u0ccd\u0caa\u0ca4\u0ccd\u0cb0\u0cc6", "source": "OpenGovernmentData"}}]}