{"version": 0.6, "generator": "Overpass API 0.7.62.1 084b4234", "osm3s": {"timestamp_osm_base": "2024-10-01T18:58:55Z", "copyright": "The data included in this document is from www.openstreetmap.org. The data is made available under ODbL."}, "elements": [{"type": "node", "id": 2946879646, "lat": 28.6271133, "lon": 77.2299746}, {"type": "node", "id": 2946879654, "lat": 28.6289184, "lon": 77.2267933}, {"type": "node", "id": 2946879655, "lat": 28.629001, "lon": 77.2268546}, {"type": "node", "id": 2946879658, "lat": 28.6291177, "lon": 77.2314251}, {"type": "node", "id": 2946879690, "lat": 28.6309174, "lon": 77.2282765}, {"type": "way", "id": 291265303, "nodes": [2946879646, 2946879658, 2946879690, 2946879655, 2946879654, 2946879646], "tags": {"addr:city": "Delhi", "addr:city:ur": "\u0646\u0626\u06cc \u062f\u06c1\u0644\u06cc", "addr:street": "Barakhamba Road", "amenity": "school", "barrier": "wall", "name": "Modern School New Delhi", "name:hi": "\u092e\u0949\u0921\u0930\u094d\u0928 \u0938\u094d\u0915\u0942\u0932 \u0928\u0908 \u0926\u093f\u0932\u094d\u0932\u0940", "name:ur": "\u0645\u0627\u0688\u0631\u0646 \u0627\u0633\u06a9\u0648\u0644 \u0646\u0626\u06cc \u062f\u06c1\u0644\u06cc", "website": "https://modernschool.net", "wikidata": "Q10942693"}}]}