{"version": 0.6, "generator": "Overpass API 0.7.62.1 084b4234", "osm3s": {"timestamp_osm_base": "2024-09-29T04:48:12Z", "copyright": "The data included in this document is from www.openstreetmap.org. The data is made available under ODbL."}, "elements": [{"type": "node", "id": 1675227962, "lat": 12.9403045, "lon": 77.6277465}, {"type": "node", "id": 2285453337, "lat": 12.9349187, "lon": 77.6305022, "tags": {"amenity": "hospital", "emergency": "no", "healthcare": "hospital", "name": "Magnus Diagnostic Lab"}}, {"type": "node", "id": 4107785790, "lat": 12.9402568, "lon": 77.6274768}, {"type": "node", "id": 6124618183, "lat": 12.9366526, "lon": 77.6277125, "tags": {"amenity": "hospital", "healthcare": "hospital", "name": "Shiva Vision Care"}}, {"type": "node", "id": 6536356188, "lat": 12.9350185, "lon": 77.6276797, "tags": {"addr:place": "Koramangala", "amenity": "school", "isced:level": "3", "name": "Chinmaya Vidyalaya, Koramangala", "name:kn": "\u0c9a\u0cbf\u0ca8\u0ccd\u0cae\u0caf \u0cb5\u0cbf\u0ca6\u0ccd\u0caf\u0cbe\u0cb2\u0caf, \u0c95\u0ccb\u0cb0\u0cae\u0c82\u0c97\u0cb2", "operator": "Private Un-Aided", "school": "Higher Secondary"}}, {"type": "node", "id": 6734919588, "lat": 12.9401321, "lon": 77.6306411, "tags": {"addr:place": "Eegipura", "amenity": "school", "isced:level": "3", "name": "Chinmaya Vidya Kendra HPS", "name:kn": "\u0c9a\u0cbf\u0ca8\u0ccd\u0cae\u0caf \u0cb5\u0cbf\u0ca6\u0ccd\u0caf\u0cbe \u0c95\u0cc7\u0c82\u0ca6\u0ccd\u0cb0 \u0cb9\u0cbf\u0cb0\u0cbf\u0caf \u0caa\u0ccd\u0cb0\u0cbe\u0ca5\u0cae\u0cbf\u0c95 \u0cb6\u0cbe\u0cb2\u0cc6, \u0c88\u0c9c\u0cbf\u0caa\u0cc1\u0cb0", "operator": "Private Un-Aided", "school": "Higher Secondary"}}, {"type": "node", "id": 10760556150, "lat": 12.9407704, "lon": 77.6276846}, {"type": "node", "id": 10760556151, "lat": 12.9401746, "lon": 77.6275232}, {"type": "node", "id": 10760556153, "lat": 12.9405851, "lon": 77.6274222}, {"type": "node", "id": 10760556154, "lat": 12.9406897, "lon": 77.6273867}, {"type": "node", "id": 11493493695, "lat": 12.9401868, "lon": 77.6275443}, {"type": "node", "id": 11493493794, "lat": 12.9405071, "lon": 77.6272996}, {"type": "way", "id": 1157119896, "nodes": [10760556150, 10760556154, 10760556153, 11493493794, 4107785790, 10760556151, 11493493695, 1675227962, 10760556150], "tags": {"addr:place": "Ejipura", "amenity": "school", "isced:level": "3", "name": "Everest High School", "name:kn": "\u0c8e\u0cb5\u0cb0\u0cc6\u0cb8\u0ccd\u0c9f\u0ccd, \u0ca8\u0cc0\u0cb2\u0cb8\u0c82\u0ca6\u0ccd\u0cb0", "operator": "Private Un-Aided", "school": "Higher Secondary"}}]}