{"version": 0.6, "generator": "Overpass API 0.7.62.1 084b4234", "osm3s": {"timestamp_osm_base": "2024-10-01T18:58:55Z", "copyright": "The data included in this document is from www.openstreetmap.org. The data is made available under ODbL."}, "elements": [{"type": "node", "id": 2929536184, "lat": 28.6374809, "lon": 77.2330286}, {"type": "node", "id": 2929536185, "lat": 28.6375251, "lon": 77.2408085}, {"type": "node", "id": 2929536186, "lat": 28.6375778, "lon": 77.2313264}, {"type": "node", "id": 2929536187, "lat": 28.6376867, "lon": 77.235711}, {"type": "node", "id": 2929536188, "lat": 28.6377429, "lon": 77.2342663}, {"type": "node", "id": 2929536189, "lat": 28.6377617, "lon": 77.2337818}, {"type": "node", "id": 2929536190, "lat": 28.6381257, "lon": 77.2406931}, {"type": "node", "id": 2929536191, "lat": 28.6381454, "lon": 77.2401849}, {"type": "node", "id": 2929536192, "lat": 28.638542, "lon": 77.2338162}, {"type": "node", "id": 2929536193, "lat": 28.6385725, "lon": 77.2331093}, {"type": "node", "id": 2929536194, "lat": 28.6390271, "lon": 77.2331429}, {"type": "node", "id": 2929536195, "lat": 28.6390622, "lon": 77.2325269}, {"type": "node", "id": 2929536196, "lat": 28.639124, "lon": 77.2314407}, {"type": "node", "id": 2929536197, "lat": 28.6396494, "lon": 77.2402745}, {"type": "node", "id": 2929536198, "lat": 28.639777, "lon": 77.2399035}, {"type": "node", "id": 2929536199, "lat": 28.6399669, "lon": 77.2358216}, {"type": "node", "id": 2929536200, "lat": 28.6401137, "lon": 77.2325856}, {"type": "node", "id": 3831722082, "lat": 28.6400271, "lon": 77.2344948}, {"type": "node", "id": 3831722083, "lat": 28.6377384, "lon": 77.234383}, {"type": "node", "id": 3831722086, "lat": 28.6391369, "lon": 77.2325311}, {"type": "node", "id": 9943458610, "lat": 28.6376751, "lon": 77.240668}, {"type": "node", "id": 9943458611, "lat": 28.6376698, "lon": 77.2408164}, {"type": "node", "id": 9943458612, "lat": 28.639665, "lon": 77.2398989}, {"type": "way", "id": 289405076, "nodes": [2929536187, 3831722083, 2929536188, 2929536189, 2929536192, 2929536193, 2929536194, 2929536195, 3831722086, 2929536200, 3831722082, 2929536199, 2929536187], "tags": {"addr:district": "Central", "addr:full": "1, Jawaharlal Nehru Marg, Delhi Gate", "addr:postcode": "110002", "addr:state": "Delhi", "addr:street": "Jawaharlal Nehru Marg", "amenity": "hospital", "barrier": "wall", "contact:phone": "1123234242", "description": "<100 Bedded Hospital", "healthcare": "hospital", "name": "Govind Ballabh Pant Hospital", "name:en": "Govind Ballabh Pant Hospital", "name:etymology:wikidata": "Q2724411", "name:hi": "\u0917\u094b\u0935\u093f\u0902\u0926 \u092c\u0932\u094d\u0932\u092d \u092a\u0902\u0924 \u0905\u0938\u094d\u092a\u0924\u093e\u0932", "phone": "+91 11 2323 2400", "source": "OpenGovernmentData", "wikidata": "Q30254208"}}, {"type": "way", "id": 289405078, "nodes": [2929536186, 2929536184, 2929536193, 2929536194, 2929536195, 2929536196, 2929536186], "tags": {"addr:district": "Central", "addr:full": "Minto Road, Mahavir Ranjeet Singh Marg,Delhi Gate", "addr:postcode": "110002", "addr:state": "Delhi", "amenity": "hospital", "barrier": "wall", "contact:phone": "1123235145", "description": "100-500 Bedded Hospital", "healthcare": "hospital", "name": "Guru Nanak Eye Hospital", "name:etymology:wikidata": "Q83322", "source": "OpenGovernmentData"}}, {"type": "way", "id": 289405081, "nodes": [2929536199, 2929536198, 9943458612, 2929536197, 2929536191, 2929536190, 9943458610, 9943458611, 2929536185, 2929536187, 2929536199], "tags": {"addr:district": "Central", "addr:full": "Gate No.-3, JLN Marg, New Delhi-2, Delhi Gate", "addr:postcode": "110002", "addr:state": "Delhi", "addr:street": "Jawaharlal Nehru Marg", "amenity": "hospital", "barrier": "wall", "contact:phone": "23236000", "description": ">500 Bedded Hospital", "healthcare": "hospital", "name": "Lok Nayak Hospital", "name:en": "Loknayak Jaiprakash Narayan Hospital", "name:etymology:wikidata": "Q734509", "name:hi": "\u0932\u094b\u0915\u0928\u093e\u092f\u0915 \u091c\u092f\u092a\u094d\u0930\u0915\u093e\u0936 \u0928\u093e\u0930\u093e\u092f\u0923 \u0905\u0938\u094d\u092a\u0924\u093e\u0932", "old_name": "Irwin Hospital", "phone": "+91 11 2323 2400", "source": "OpenGovernmentData", "wikidata": "Q30279844", "wikipedia": "en:Lok Nayak Hospital"}}]}