{"version": 0.6, "generator": "Overpass API 0.7.62.1 084b4234", "osm3s": {"timestamp_osm_base": "2024-10-04T07:14:52Z", "copyright": "The data included in this document is from www.openstreetmap.org. The data is made available under ODbL."}, "elements": [{"type": "node", "id": 6094600874, "lat": 26.6276543, "lon": 92.7996974, "tags": {"amenity": "school", "name": "Tezpur Bengali Boys' Higher Secondary School"}}, {"type": "node", "id": 6913293231, "lat": 26.6302423, "lon": 92.7974206, "tags": {"addr:district": "Sonitpur", "addr:full": "Hospital Road, Opp Civil Hospital", "addr:postcode": "784001", "addr:state": "Assam", "amenity": "hospital", "name": "Skylark Hospital", "source": "OpenGovernmentData"}}, {"type": "node", "id": 7153386671, "lat": 26.628821, "lon": 92.796941, "tags": {"addr:district": "Sonitpur", "addr:full": "Civil Hospital Road, Opposite Nursing School", "addr:postcode": "784001", "addr:state": "Assam", "amenity": "hospital", "description": "District Hospital", "name": "Kanaklata Civil Hospital", "source": "OpenGovernmentData"}}]}