{"version": 0.6, "generator": "Overpass API 0.7.62.1 084b4234", "osm3s": {"timestamp_osm_base": "2024-09-29T04:18:52Z", "copyright": "The data included in this document is from www.openstreetmap.org. The data is made available under ODbL."}, "elements": [{"type": "node", "id": 6702845728, "lat": 12.9371426, "lon": 77.6329739, "tags": {"addr:place": "Eegipura", "amenity": "school", "isced:level": "1", "name": "GLPS Sheenivagilu", "name:kn": "\u0cb8\u0cb0\u0ccd\u0c95\u0cbe\u0cb0\u0cbf \u0c95\u0cbf\u0cb0\u0cbf\u0caf \u0caa\u0ccd\u0cb0\u0cbe\u0ca5\u0cae\u0cbf\u0c95 \u0cb6\u0cbe\u0cb2\u0cc6 \u0cb6\u0cc0\u0ca8\u0cbf\u0cb5\u0cbe\u0c97\u0cbf\u0cb2\u0cc1,\u0c88\u0c9c\u0cbf\u0caa\u0cc1\u0cb0", "operator": "Department of Education", "school": "primary"}}, {"type": "node", "id": 6702879198, "lat": 12.9417163, "lon": 77.6309641, "tags": {"addr:place": "Eegipura", "amenity": "school", "isced:level": "3", "name": "Modern HPS Eegipura", "name:kn": "\u0cae\u0cca\u0ca1\u0cb0\u0ca8\u0ccd\u200c \u0cb9\u0cbf\u0cb0\u0cbf\u0caf \u0caa\u0ccd\u0cb0\u0cbe\u0ca5\u0cae\u0cbf\u0c95 \u0cb6\u0cbe\u0cb2\u0cc6 \u0c88\u0c9c\u0cbf\u0caa\u0cc1\u0cb0", "operator": "Private Un-Aided", "school": "Higher Secondary"}}, {"type": "node", "id": 6734440133, "lat": 12.9372466, "lon": 77.6330696, "tags": {"addr:place": "Eegipura", "amenity": "school", "isced:level": "2", "name": "Patriyot Vidyanikethan LPS", "name:kn": "\u0caa\u0ccd\u0caf\u0cbe\u0c9f\u0ccd\u0cb0\u0cbf\u0caf\u0cbe\u0c9f\u0ccd \u0cb5\u0cbf\u0ca6\u0ccd\u0caf\u0cbe\u0ca8\u0cbf\u0c95\u0cc7\u0ca4\u0ca8 \u0c95\u0cbf\u0cb0\u0cbf\u0caf \u0caa\u0ccd\u0cb0\u0cbe\u0ca5\u0cae\u0cbf\u0c95 \u0cb6\u0cbe\u0cb2\u0cc6,\u0c88\u0c9c\u0cbf\u0caa\u0cc1\u0cb0", "school": "Higher Primary"}}, {"type": "node", "id": 6734919588, "lat": 12.9401321, "lon": 77.6306411, "tags": {"addr:place": "Eegipura", "amenity": "school", "isced:level": "3", "name": "Chinmaya Vidya Kendra HPS", "name:kn": "\u0c9a\u0cbf\u0ca8\u0ccd\u0cae\u0caf \u0cb5\u0cbf\u0ca6\u0ccd\u0caf\u0cbe \u0c95\u0cc7\u0c82\u0ca6\u0ccd\u0cb0 \u0cb9\u0cbf\u0cb0\u0cbf\u0caf \u0caa\u0ccd\u0cb0\u0cbe\u0ca5\u0cae\u0cbf\u0c95 \u0cb6\u0cbe\u0cb2\u0cc6, \u0c88\u0c9c\u0cbf\u0caa\u0cc1\u0cb0", "operator": "Private Un-Aided", "school": "Higher Secondary"}}]}