{"version": 0.6, "generator": "Overpass API 0.7.62.1 084b4234", "osm3s": {"timestamp_osm_base": "2024-10-02T07:21:45Z", "copyright": "The data included in this document is from www.openstreetmap.org. The data is made available under ODbL."}, "elements": [{"type": "node", "id": 7545203159, "lat": 28.7449013, "lon": 77.144869, "tags": {"addr:district": "North Delhi", "addr:full": "3, Narain Market, Samaypur, Near Samaypur Badli Metro Station", "addr:postcode": "110042", "addr:state": "Delhi", "amenity": "hospital", "name": "Airmid Hospital", "source": "Local Knowledge"}}, {"type": "node", "id": 7545203166, "lat": 28.7449215, "lon": 77.1431698, "tags": {"addr:district": "North Delhi", "addr:full": "A, Gali Number 10, Teachers Colony, Samaypur", "addr:postcode": "110042", "addr:state": "Delhi", "amenity": "hospital", "name": "Delhi Global Hospital", "source": "Local Knowledge"}}, {"type": "node", "id": 7545203213, "lat": 28.7457338, "lon": 77.1445171, "tags": {"addr:district": "North Delhi", "addr:full": "Samaypur Underpass, Suraj Park, Pocket G, Sector 18, Rohini", "addr:postcode": "110042", "addr:state": "Delhi", "amenity": "hospital", "name": "City Hospital 42", "source": "Local Knowledge"}}]}